[{"OBJECT_NAME":"STARLINK-5695","OBJECT_ID":"2023-015AN","EPOCH":"2026-03-09T22:00:01.999584","MEAN_MOTION":15.12778701,"ECCENTRICITY":0.0001487,"INCLINATION":42.9994,"RA_OF_ASC_NODE":337.4442,"ARG_OF_PERICENTER":225.7062,"MEAN_ANOMALY":61.9629,"EPHEMERIS_TYPE":0,"CLASSIFICATION_TYPE":"U","NORAD_CAT_ID":55485,"ELEMENT_SET_NO":999,"REV_AT_EPOCH":577,"BSTAR":0.00099175492,"MEAN_MOTION_DOT":0.00017529,"MEAN_MOTION_DDOT":0},{"OBJECT_NAME":"CZ-6A DEB","OBJECT_ID":"2022-151DV","EPOCH":"2026-03-09T19:16:59.107296","MEAN_MOTION":15.22406517,"ECCENTRICITY":0.00445255,"INCLINATION":98.4509,"RA_OF_ASC_NODE":160.1888,"ARG_OF_PERICENTER":355.6495,"MEAN_ANOMALY":4.4345,"EPHEMERIS_TYPE":0,"CLASSIFICATION_TYPE":"U","NORAD_CAT_ID":54397,"ELEMENT_SET_NO":999,"REV_AT_EPOCH":17880,"BSTAR":0.0035436228,"MEAN_MOTION_DOT":0.00084931,"MEAN_MOTION_DDOT":0}]
